STARLINK-37618          
1 69228U 26115T   26159.42072407  .00188008  00000+0  95736-3 0  9998
2 69228  97.2843 176.4340 0000338 119.7750 240.3552 15.80905143  3304
STARLINK-37679          
1 69229U 26115U   26159.42220867  .00135671  00000+0  69658-3 0  9996
2 69229  97.2840 176.4317 0001437  90.0117 270.1316 15.80863027  3308
STARLINK-37746          
1 69230U 26115V   26159.42374348  .00110707  00000+0  57116-3 0  9991
2 69230  97.2840 176.4294 0001186  71.0172 289.1225 15.80825436  3306
STARLINK-37557          
1 69231U 26115W   26159.23068273 -.00216665  00000+0 -11742-2 0  9994
2 69231  97.2845 176.2335 0000422 285.8696  74.2526 15.80527381  3275
STARLINK-37745          
1 69232U 26115X   26159.47981449  .00177074  00000+0  90390-3 0  9995
2 69232  97.2842 176.5069 0001073  88.7481 271.3910 15.80880273  3319
STARLINK-37739          
1 69233U 26115Y   26159.42136726  .00182186  00000+0  93040-3 0  9996
2 69233  97.2843 176.4334 0001140  78.6061 281.5335 15.80857362  3308
STARLINK-37755          
1 69234U 26115Z   26159.50002315  .00010862  00000+0  73594-4 0  9996
2 69234  97.2847 176.4992 0001749 104.1514 300.9771 15.75190955  3296
TJS-24                  
1 69235U 26116A   26159.69608486 -.00000215  00000+0  00000+0 0  9998
2 69235   0.0277 245.6443 0000706 172.7412 179.5971  1.00271058   146
STARLINK-37665          
1 69238U 26117A   26159.50002315  .00026189  00000+0  12905-3 0  9999
2 69238  53.1586 287.2312 0000605  30.5730 174.1510 15.81985558  2772
STARLINK-37558          
1 69239U 26117B   26159.50002315 -.00025037  00000+0 -11732-3 0  9990
2 69239  53.1586 287.2201 0000806  46.0470 164.1110 15.81998899  2773
STARLINK-37680          
1 69240U 26117C   26159.50002315 -.00011971  00000+0 -54255-4 0  9992
2 69240  53.1586 287.2027 0001023  79.7784 138.5979 15.81985593  2768
STARLINK-37742          
1 69241U 26117D   26159.50002315 -.00349821  00000+0 -17316-2 0  9996
2 69241  53.1584 287.1821 0000972  43.0261 185.4125 15.82192561  2775
STARLINK-37718          
1 69242U 26117E   26159.50002315 -.00618025  00000+0 -31298-2 0  9997
2 69242  53.1584 287.1674 0001131  84.8537 150.5212 15.82373240  2763
STARLINK-37735          
1 69243U 26117F   26159.50002315 -.00115029  00000+0 -55573-3 0  9997
2 69243  53.1586 287.1660 0000938  88.8105 147.3494 15.82050223  2770
STARLINK-37757          
1 69244U 26117G   26159.50002315 -.01010916  00000+0 -52735-2 0  9994
2 69244  53.1583 287.1384 0000859  92.5117 156.9149 15.82725532  2773
STARLINK-37767          
1 69245U 26117H   26159.50002315 -.02046690  00000+0 -10355-1 0  9995
2 69245  53.1574 287.0900 0000945  90.5923 181.9429 15.84010676  2773
STARLINK-35759          
1 69246U 26117J   26159.50002315 -.02105737  00000+0 -10702-1 0  9990
2 69246  53.1575 287.0820 0000823  82.6669 193.7965 15.84017684  2828
STARLINK-37238          
1 69247U 26117K   26159.50002315 -.02075950  00000+0 -98211-2 0  9996
2 69247  53.1573 287.0353 0000687  79.3489 219.2727 15.85440503  2774
STARLINK-37412          
1 69248U 26117L   26159.50002315 -.02077360  00000+0 -95192-2 0  9999
2 69248  53.1569 286.9998 0000737  68.3061 247.5842 15.86089909  2843
STARLINK-37398          
1 69249U 26117M   26159.50002315 -.02060969  00000+0 -94861-2 0  9999
2 69249  53.1567 286.9942 0000620  69.0213 249.3810 15.85974875  2848
STARLINK-37499          
1 69250U 26117N   26159.50002315 -.02096224  00000+0 -95533-2 0  9991
2 69250  53.1566 286.9802 0000702  75.7461 249.5399 15.86231676  2844
STARLINK-37489          
1 69251U 26117P   26159.50002315 -.02117120  00000+0 -95476-2 0  9997
2 69251  53.1569 286.9607 0000487  77.0578 257.4574 15.86480936  2843
STARLINK-37434          
1 69252U 26117Q   26159.50002315 -.02080024  00000+0 -89440-2 0  9994
2 69252  53.1564 286.9330 0000866  72.3250 275.3902 15.87371117  2775
STARLINK-37368          
1 69253U 26117R   26159.50002315 -.02028091  00000+0 -79849-2 0  9993
2 69253  53.1563 286.8719 0000722  78.0775 299.1590 15.89035696  2847
STARLINK-37517          
1 69254U 26117S   26159.50002315 -.02027188  00000+0 -78886-2 0  9990
2 69254  53.1564 286.8596 0000822  71.8395 311.4993 15.89262032  2843
STARLINK-37378          
1 69255U 26117T   26159.50002315 -.02046581  00000+0 -80481-2 0  9993
2 69255  53.1564 286.8523 0000838  71.3072 315.2822 15.89085953  2767
STARLINK-37396          
1 69256U 26117U   26159.50002315 -.02061541  00000+0 -79574-2 0  9998
2 69256  53.1563 286.8272 0000820  75.3033 323.1372 15.89472937  2849
STARLINK-37508          
1 69257U 26117V   26159.50002315 -.02078890  00000+0 -79515-2 0  9999
2 69257  53.1560 286.8098 0000780  62.7662 343.8725 15.89677743  2760
STARLINK-37276          
1 69258U 26117W   26159.50002315 -.01652150  78858-3 -41300-2 0  9997
2 69258  53.1559 286.6758 0001051  39.4087  71.3197 15.95181414  2762
