OBJECT_NAME,OBJECT_ID,EPOCH,MEAN_MOTION,ECCENTRICITY,INCLINATION,RA_OF_ASC_NODE,ARG_OF_PERICENTER,MEAN_ANOMALY,EPHEMERIS_TYPE,CLASSIFICATION_TYPE,NORAD_CAT_ID,ELEMENT_SET_NO,REV_AT_EPOCH,BSTAR,MEAN_MOTION_DOT,MEAN_MOTION_DDOT
STARLINK-37618,2026-115T,2026-06-08T10:05:50.559648,15.80905143,.0000338,97.2843,176.4340,119.7750,240.3552,0,U,69228,999,330,.95736E-3,.188008E-2,0
STARLINK-37679,2026-115U,2026-06-08T10:07:58.829088,15.80863027,.0001437,97.2840,176.4317,90.0117,270.1316,0,U,69229,999,330,.69658E-3,.135671E-2,0
STARLINK-37746,2026-115V,2026-06-08T10:10:11.436672,15.80825436,.0001186,97.2840,176.4294,71.0172,289.1225,0,U,69230,999,330,.57116E-3,.110707E-2,0
STARLINK-37557,2026-115W,2026-06-08T05:32:10.987872,15.80527381,.0000422,97.2845,176.2335,285.8696,74.2526,0,U,69231,999,327,-.11742E-2,-.216665E-2,0
STARLINK-37745,2026-115X,2026-06-08T11:30:55.971936,15.80880273,.0001073,97.2842,176.5069,88.7481,271.3910,0,U,69232,999,331,.9039E-3,.177074E-2,0
STARLINK-37739,2026-115Y,2026-06-08T10:06:46.131264,15.80857362,.000114,97.2843,176.4334,78.6061,281.5335,0,U,69233,999,330,.9304E-3,.182186E-2,0
STARLINK-37755,2026-115Z,2026-06-08T12:00:02.000160,15.75190955,.0001749,97.2847,176.4992,104.1514,300.9771,0,U,69234,999,329,.73594E-4,.10862E-3,0
TJS-24,2026-116A,2026-06-08T16:42:21.731904,1.00271058,.0000706,0.0277,245.6443,172.7412,179.5971,0,U,69235,999,14,0,-.215E-5,0
STARLINK-37665,2026-117A,2026-06-08T12:00:02.000160,15.81985558,.0000605,53.1586,287.2312,30.5730,174.1510,0,U,69238,999,277,.12905E-3,.26189E-3,0
STARLINK-37558,2026-117B,2026-06-08T12:00:02.000160,15.81998899,.0000806,53.1586,287.2201,46.0470,164.1110,0,U,69239,999,277,-.11732E-3,-.25037E-3,0
STARLINK-37680,2026-117C,2026-06-08T12:00:02.000160,15.81985593,.0001023,53.1586,287.2027,79.7784,138.5979,0,U,69240,999,276,-.54255E-4,-.11971E-3,0
STARLINK-37742,2026-117D,2026-06-08T12:00:02.000160,15.82192561,.0000972,53.1584,287.1821,43.0261,185.4125,0,U,69241,999,277,-.17316E-2,-.349821E-2,0
STARLINK-37718,2026-117E,2026-06-08T12:00:02.000160,15.82373240,.0001131,53.1584,287.1674,84.8537,150.5212,0,U,69242,999,276,-.31298E-2,-.618025E-2,0
STARLINK-37735,2026-117F,2026-06-08T12:00:02.000160,15.82050223,.0000938,53.1586,287.1660,88.8105,147.3494,0,U,69243,999,277,-.55573E-3,-.115029E-2,0
STARLINK-37757,2026-117G,2026-06-08T12:00:02.000160,15.82725532,.0000859,53.1583,287.1384,92.5117,156.9149,0,U,69244,999,277,-.52735E-2,-.1010916E-1,0
STARLINK-37767,2026-117H,2026-06-08T12:00:02.000160,15.84010676,.0000945,53.1574,287.0900,90.5923,181.9429,0,U,69245,999,277,-.10355E-1,-.204669E-1,0
STARLINK-35759,2026-117J,2026-06-08T12:00:02.000160,15.84017684,.0000823,53.1575,287.0820,82.6669,193.7965,0,U,69246,999,282,-.10702E-1,-.2105737E-1,0
STARLINK-37238,2026-117K,2026-06-08T12:00:02.000160,15.85440503,.0000687,53.1573,287.0353,79.3489,219.2727,0,U,69247,999,277,-.98211E-2,-.207595E-1,0
STARLINK-37412,2026-117L,2026-06-08T12:00:02.000160,15.86089909,.0000737,53.1569,286.9998,68.3061,247.5842,0,U,69248,999,284,-.95192E-2,-.207736E-1,0
STARLINK-37398,2026-117M,2026-06-08T12:00:02.000160,15.85974875,.000062,53.1567,286.9942,69.0213,249.3810,0,U,69249,999,284,-.94861E-2,-.2060969E-1,0
STARLINK-37499,2026-117N,2026-06-08T12:00:02.000160,15.86231676,.0000702,53.1566,286.9802,75.7461,249.5399,0,U,69250,999,284,-.95533E-2,-.2096224E-1,0
STARLINK-37489,2026-117P,2026-06-08T12:00:02.000160,15.86480936,.0000487,53.1569,286.9607,77.0578,257.4574,0,U,69251,999,284,-.95476E-2,-.211712E-1,0
STARLINK-37434,2026-117Q,2026-06-08T12:00:02.000160,15.87371117,.0000866,53.1564,286.9330,72.3250,275.3902,0,U,69252,999,277,-.8944E-2,-.2080024E-1,0
STARLINK-37368,2026-117R,2026-06-08T12:00:02.000160,15.89035696,.0000722,53.1563,286.8719,78.0775,299.1590,0,U,69253,999,284,-.79849E-2,-.2028091E-1,0
STARLINK-37517,2026-117S,2026-06-08T12:00:02.000160,15.89262032,.0000822,53.1564,286.8596,71.8395,311.4993,0,U,69254,999,284,-.78886E-2,-.2027188E-1,0
STARLINK-37378,2026-117T,2026-06-08T12:00:02.000160,15.89085953,.0000838,53.1564,286.8523,71.3072,315.2822,0,U,69255,999,276,-.80481E-2,-.2046581E-1,0
STARLINK-37396,2026-117U,2026-06-08T12:00:02.000160,15.89472937,.000082,53.1563,286.8272,75.3033,323.1372,0,U,69256,999,284,-.79574E-2,-.2061541E-1,0
STARLINK-37508,2026-117V,2026-06-08T12:00:02.000160,15.89677743,.000078,53.1560,286.8098,62.7662,343.8725,0,U,69257,999,276,-.79515E-2,-.207889E-1,0
STARLINK-37276,2026-117W,2026-06-08T12:00:02.000160,15.95181414,.0001051,53.1559,286.6758,39.4087,71.3197,0,U,69258,999,276,-.413E-2,-.165215E-1,.78858E-3
